CAS-2T & KS-1Q          
1 41847U 16066G   20321.71998415  .00000152  00000-0  32457-4 0  9998
2 41847  98.6346  13.6195 0366336 134.9856 228.1650 14.38111868211302
NAYIF-1 (EO-88)         
1 42017U 17008BX  20321.73918576  .00002473  00000-0  96050-4 0  9994
2 42017  97.3442  26.9812 0007325 133.6108 226.5740 15.26996978208785
ZHUHAI-1 02 (CAS-4B)    
1 42759U 17034B   20322.58124601  .00000705  00000-0  56048-4 0  9997
2 42759  43.0188 265.6586 0011414 277.6488 251.7141 15.09953048189119
ZHUHAI-1 01 (CAS-4A)    
1 42761U 17034D   20322.58361140  .00000649  00000-0  52588-4 0  9993
2 42761  43.0188 264.8436 0011817 279.4098 249.5801 15.10032448189113
MAX VALIER SAT          
1 42778U 17036P   20321.66491217  .00001458  00000-0  64985-4 0  9993
2 42778  97.2864  10.9532 0011551 199.0592 161.0214 15.22921441188894
RADFXSAT (FOX-1B)       
1 43017U 17073E   20321.74532474  .00000957  00000-0  80181-4 0  9990
2 43017  97.7157 228.0491 0254863 274.1251  83.0872 14.79146616161673
FOX-1D (AO-92)          
1 43137U 18004AC  20321.72064904  .00001691  00000-0  71788-4 0  9993
2 43137  97.4317  31.7520 0007737 234.5396 125.5120 15.24459943158236
DIWATA-2B               
1 43678U 18084H   20322.55350392 -.00000008  00000-0  49329-5 0  9991
2 43678  97.9014  81.1074 0010769  37.6723 322.5284 14.91668514111848
ES'HAIL 2               
1 43700U 18090A   20321.73917299  .00000144  00000-0  00000+0 0  9995
2 43700   0.0148 281.9787 0001500 333.1743  93.0315  1.00271833  7486
FOX-1CLIFF (AO-95)      
1 43770U 18099N   20321.77337734  .00000088  00000-0  13187-4 0  9997
2 43770  97.6917  30.3837 0015668  52.3067 307.9572 14.95096133106679
ITASAT 1                
1 43786U 18099AE  20321.73644504  .00000623  00000-0  61477-4 0  9996
2 43786  97.6931  30.8759 0016076  46.4496 313.8057 14.95418456106696
JY1SAT (JO-97)          
1 43803U 18099AX  20321.73207341  .00000610  00000-0  59958-4 0  9997
2 43803  97.6891  30.6566 0015995  46.6603 313.5948 14.95616217106697
PSAT2 (NO-104)          
1 44354U 19036R   20321.72836606  .00020598  00000-0  29420-3 0  9999
2 44354  28.5286  98.4901 0351964 140.5953 222.0799 15.06664108 76774
BRICSAT2 (NO-103)       
1 44355U 19036S   20321.65732911  .00040651  00000-0  53414-3 0  9998
2 44355  28.5295  80.2576 0318519 170.1650 190.5361 15.15190552 76955
JAISAT-1                
1 44419U 19038F   20321.61124043  .00001582  00000-0  92802-4 0  9993
2 44419  97.5593 281.6085 0020635 330.4712  29.5352 15.13077206 75604
DUCHIFAT-3              
1 44854U 19089C   20321.95506659  .00000641  00000-0  57982-4 0  9991
2 44854  36.9675 277.0254 0008707 223.4936 136.5077 14.99197945 51194
RS-44 & BREEZE-KM R/B   
1 44909U 19096E   20321.81409624  .00000019  00000-0  37432-4 0  9996
2 44909  82.5219 254.0630 0216425 230.1364 128.0526 12.79708060 41676
ORBITAL FACTORY 2 (OF-2)
1 45113U 19071C   20321.50793704  .00003139  00000-0  10503-3 0  9993
2 45113  51.6429 348.7057 0012083 244.9396 115.0332 15.34048656 44463
HUSKYSAT-1              
1 45119U 19071J   20321.79262503  .00002504  00000-0  85671-4 0  9992
2 45119  51.6431 346.8562 0011392 242.4912 117.4913 15.34218132 44505
SALSAT                  
1 46495U 20068K   20321.80468250  .00000224  00000-0  21039-4 0  9992
2 46495  97.6736 254.8404 0019100  72.3319 287.9989 15.03255593  7389
